[{"OBJECT_NAME":"STARLINK-2534","OBJECT_ID":"2021-036AM","EPOCH":"2026-03-09T07:49:04.034496","MEAN_MOTION":15.30215725,"ECCENTRICITY":0.00013222,"INCLINATION":53.1609,"RA_OF_ASC_NODE":90.3234,"ARG_OF_PERICENTER":82.9471,"MEAN_ANOMALY":277.168,"EPHEMERIS_TYPE":0,"CLASSIFICATION_TYPE":"U","NORAD_CAT_ID":48311,"ELEMENT_SET_NO":999,"REV_AT_EPOCH":26816,"BSTAR":0.00013616147,"MEAN_MOTION_DOT":3.677e-5,"MEAN_MOTION_DDOT":0},{"OBJECT_NAME":"CZ-4B DEB","OBJECT_ID":"1999-057DZ","EPOCH":"2026-03-09T09:52:12.897696","MEAN_MOTION":15.33653758,"ECCENTRICITY":0.00127381,"INCLINATION":98.4932,"RA_OF_ASC_NODE":238.6814,"ARG_OF_PERICENTER":254.7139,"MEAN_ANOMALY":105.2693,"EPHEMERIS_TYPE":0,"CLASSIFICATION_TYPE":"U","NORAD_CAT_ID":26235,"ELEMENT_SET_NO":999,"REV_AT_EPOCH":38912,"BSTAR":0.0023807093,"MEAN_MOTION_DOT":0.00078286,"MEAN_MOTION_DDOT":0}]
